{"type": "FeatureCollection", "features": [{"type": "Feature", "properties": {"name": "Adona", "pop": 147}, "geometry": {"type": "Point", "coordinates": [-92.89913, 35.03993]}}, {"type": "Feature", "properties": {"name": "Alexander", "pop": 3740}, "geometry": {"type": "Point", "coordinates": [-92.45122, 34.61859]}}, {"type": "Feature", "properties": {"name": "Alicia", "pop": 140}, "geometry": {"type": "Point", "coordinates": [-91.08345, 35.89291]}}, {"type": "Feature", "properties": {"name": "Allport", "pop": 90}, "geometry": {"type": "Point", "coordinates": [-91.78389, 34.53987]}}, {"type": "Feature", "properties": {"name": "Alma", "pop": 5997}, "geometry": {"type": "Point", "coordinates": [-94.21395, 35.49238]}}, {"type": "Feature", "properties": {"name": "Almyra", "pop": 249}, "geometry": {"type": "Point", "coordinates": [-91.41085, 34.40569]}}, {"type": "Feature", "properties": {"name": "Alpena", "pop": 385}, "geometry": {"type": "Point", "coordinates": [-93.30361, 36.29275]}}, {"type": "Feature", "properties": {"name": "Altheimer", "pop": 657}, "geometry": {"type": "Point", "coordinates": [-91.84728, 34.32743]}}, {"type": "Feature", "properties": {"name": "Altus", "pop": 675}, "geometry": {"type": "Point", "coordinates": [-93.76439, 35.44676]}}, {"type": "Feature", "properties": {"name": "Amagon", "pop": 65}, "geometry": {"type": "Point", "coordinates": [-91.10941, 35.56317]}}, {"type": "Feature", "properties": {"name": "Amity", "pop": 676}, "geometry": {"type": "Point", "coordinates": [-93.46342, 34.26619]}}, {"type": "Feature", "properties": {"name": "Anthonyville", "pop": 130}, "geometry": {"type": "Point", "coordinates": [-90.34033, 35.03983]}}, {"type": "Feature", "properties": {"name": "Antoine", "pop": 114}, "geometry": {"type": "Point", "coordinates": [-93.42136, 34.03454]}}, {"type": "Feature", "properties": {"name": "Arkadelphia", "pop": 10255}, "geometry": {"type": "Point", "coordinates": [-93.07085, 34.12738]}}, {"type": "Feature", "properties": {"name": "Arkansas City", "pop": 349}, "geometry": {"type": "Point", "coordinates": [-91.2049, 33.60888]}}, {"type": "Feature", "properties": {"name": "Ashdown", "pop": 4162}, "geometry": {"type": "Point", "coordinates": [-94.12663, 33.67453]}}, {"type": "Feature", "properties": {"name": "Ash Flat", "pop": 1175}, "geometry": {"type": "Point", "coordinates": [-91.60651, 36.23656]}}, {"type": "Feature", "properties": {"name": "Atkins", "pop": 2884}, "geometry": {"type": "Point", "coordinates": [-92.94964, 35.24086]}}, {"type": "Feature", "properties": {"name": "Aubrey", "pop": 99}, "geometry": {"type": "Point", "coordinates": [-90.89798, 34.71982]}}, {"type": "Feature", "properties": {"name": "Augusta", "pop": 1892}, "geometry": {"type": "Point", "coordinates": [-91.36086, 35.28655]}}, {"type": "Feature", "properties": {"name": "Austin", "pop": 4027}, "geometry": {"type": "Point", "coordinates": [-91.98961, 35.00591]}}, {"type": "Feature", "properties": {"name": "Avoca", "pop": 482}, "geometry": {"type": "Point", "coordinates": [-94.06577, 36.3947]}}, {"type": "Feature", "properties": {"name": "Bald Knob", "pop": 2513}, "geometry": {"type": "Point", "coordinates": [-91.57125, 35.31254]}}, {"type": "Feature", "properties": {"name": "Banks", "pop": 81}, "geometry": {"type": "Point", "coordinates": [-92.2671, 33.5758]}}, {"type": "Feature", "properties": {"name": "Barling", "pop": 5215}, "geometry": {"type": "Point", "coordinates": [-94.27519, 35.33129]}}, {"type": "Feature", "properties": {"name": "Bassett", "pop": 117}, "geometry": {"type": "Point", "coordinates": [-90.12943, 35.53558]}}, {"type": "Feature", "properties": {"name": "Batesville", "pop": 11515}, "geometry": {"type": "Point", "coordinates": [-91.62265, 35.76857]}}, {"type": "Feature", "properties": {"name": "Bauxite", "pop": 644}, "geometry": {"type": "Point", "coordinates": [-92.50209, 34.55774]}}, {"type": "Feature", "properties": {"name": "Bay", "pop": 1821}, "geometry": {"type": "Point", "coordinates": [-90.55214, 35.74606]}}, {"type": "Feature", "properties": {"name": "Bearden", "pop": 739}, "geometry": {"type": "Point", "coordinates": [-92.61868, 33.72765]}}, {"type": "Feature", "properties": {"name": "Beaver", "pop": 67}, "geometry": {"type": "Point", "coordinates": [-93.77733, 36.47399]}}, {"type": "Feature", "properties": {"name": "Beebe", "pop": 8871}, "geometry": {"type": "Point", "coordinates": [-91.90106, 35.07243]}}, {"type": "Feature", "properties": {"name": "Beedeville", "pop": 83}, "geometry": {"type": "Point", "coordinates": [-91.11074, 35.42917]}}, {"type": "Feature", "properties": {"name": "Bella Vista", "pop": 32368}, "geometry": {"type": "Point", "coordinates": [-94.26632, 36.46664]}}, {"type": "Feature", "properties": {"name": "Bellefonte", "pop": 426}, "geometry": {"type": "Point", "coordinates": [-93.04704, 36.19986]}}, {"type": "Feature", "properties": {"name": "Belleville", "pop": 308}, "geometry": {"type": "Point", "coordinates": [-93.44577, 35.09153]}}, {"type": "Feature", "properties": {"name": "Ben Lomond", "pop": 136}, "geometry": {"type": "Point", "coordinates": [-94.12332, 33.82911]}}, {"type": "Feature", "properties": {"name": "Benton", "pop": 37558}, "geometry": {"type": "Point", "coordinates": [-92.57258, 34.57742]}}, {"type": "Feature", "properties": {"name": "Bentonville", "pop": 59471}, "geometry": {"type": "Point", "coordinates": [-94.23118, 36.35266]}}, {"type": "Feature", "properties": {"name": "Bergman", "pop": 440}, "geometry": {"type": "Point", "coordinates": [-93.01122, 36.31279]}}, {"type": "Feature", "properties": {"name": "Berryville", "pop": 5754}, "geometry": {"type": "Point", "coordinates": [-93.57039, 36.37103]}}, {"type": "Feature", "properties": {"name": "Bigelow", "pop": 358}, "geometry": {"type": "Point", "coordinates": [-92.63117, 34.9978]}}, {"type": "Feature", "properties": {"name": "Big Flat", "pop": 89}, "geometry": {"type": "Point", "coordinates": [-92.41022, 36.00339]}}, {"type": "Feature", "properties": {"name": "Biggers", "pop": 308}, "geometry": {"type": "Point", "coordinates": [-90.8007, 36.33136]}}, {"type": "Feature", "properties": {"name": "Birdsong", "pop": 29}, "geometry": {"type": "Point", "coordinates": [-90.25976, 35.46116]}}, {"type": "Feature", "properties": {"name": "Black Oak", "pop": 226}, "geometry": {"type": "Point", "coordinates": [-90.36757, 35.83649]}}, {"type": "Feature", "properties": {"name": "Black Rock", "pop": 608}, "geometry": {"type": "Point", "coordinates": [-91.10748, 36.10624]}}, {"type": "Feature", "properties": {"name": "Black Springs", "pop": 94}, "geometry": {"type": "Point", "coordinates": [-93.71312, 34.45598]}}, {"type": "Feature", "properties": {"name": "Blevins", "pop": 277}, "geometry": {"type": "Point", "coordinates": [-93.57819, 33.87125]}}, {"type": "Feature", "properties": {"name": "Blue Eye", "pop": 44}, "geometry": {"type": "Point", "coordinates": [-93.39771, 36.49667]}}, {"type": "Feature", "properties": {"name": "Blue Mountain", "pop": 90}, "geometry": {"type": "Point", "coordinates": [-93.71667, 35.1318]}}, {"type": "Feature", "properties": {"name": "Bluff City", "pop": 113}, "geometry": {"type": "Point", "coordinates": [-93.12456, 33.73512]}}, {"type": "Feature", "properties": {"name": "Blytheville", "pop": 12594}, "geometry": {"type": "Point", "coordinates": [-89.90513, 35.93407]}}, {"type": "Feature", "properties": {"name": "Bodcaw", "pop": 118}, "geometry": {"type": "Point", "coordinates": [-93.39304, 33.56364]}}, {"type": "Feature", "properties": {"name": "Bonanza", "pop": 608}, "geometry": {"type": "Point", "coordinates": [-94.41613, 35.23179]}}, {"type": "Feature", "properties": {"name": "Bono", "pop": 2780}, "geometry": {"type": "Point", "coordinates": [-90.80082, 35.9111]}}, {"type": "Feature", "properties": {"name": "Booneville", "pop": 3820}, "geometry": {"type": "Point", "coordinates": [-93.9175, 35.13933]}}, {"type": "Feature", "properties": {"name": "Bradford", "pop": 679}, "geometry": {"type": "Point", "coordinates": [-91.45523, 35.422]}}, {"type": "Feature", "properties": {"name": "Bradley", "pop": 394}, "geometry": {"type": "Point", "coordinates": [-93.6569, 33.10011]}}, {"type": "Feature", "properties": {"name": "Branch", "pop": 305}, "geometry": {"type": "Point", "coordinates": [-93.95537, 35.3083]}}, {"type": "Feature", "properties": {"name": "Briarcliff", "pop": 247}, "geometry": {"type": "Point", "coordinates": [-92.28209, 36.27197]}}, {"type": "Feature", "properties": {"name": "Brinkley", "pop": 2574}, "geometry": {"type": "Point", "coordinates": [-91.18982, 34.88978]}}, {"type": "Feature", "properties": {"name": "Brookland", "pop": 4556}, "geometry": {"type": "Point", "coordinates": [-90.57166, 35.89705]}}, {"type": "Feature", "properties": {"name": "Bryant", "pop": 21877}, "geometry": {"type": "Point", "coordinates": [-92.49134, 34.61506]}}, {"type": "Feature", "properties": {"name": "Buckner", "pop": 156}, "geometry": {"type": "Point", "coordinates": [-93.43556, 33.35727]}}, {"type": "Feature", "properties": {"name": "Bull Shoals", "pop": 1934}, "geometry": {"type": "Point", "coordinates": [-92.5915, 36.37357]}}, {"type": "Feature", "properties": {"name": "Burdette", "pop": 134}, "geometry": {"type": "Point", "coordinates": [-89.94642, 35.81527]}}, {"type": "Feature", "properties": {"name": "Cabot", "pop": 27190}, "geometry": {"type": "Point", "coordinates": [-92.02829, 34.97511]}}, {"type": "Feature", "properties": {"name": "Caddo Valley", "pop": 590}, "geometry": {"type": "Point", "coordinates": [-93.0846, 34.18075]}}, {"type": "Feature", "properties": {"name": "Caldwell", "pop": 429}, "geometry": {"type": "Point", "coordinates": [-90.80945, 35.07479]}}, {"type": "Feature", "properties": {"name": "Cale", "pop": 75}, "geometry": {"type": "Point", "coordinates": [-93.2328, 33.62789]}}, {"type": "Feature", "properties": {"name": "Calico Rock", "pop": 1945}, "geometry": {"type": "Point", "coordinates": [-92.12591, 36.12197]}}, {"type": "Feature", "properties": {"name": "Calion", "pop": 410}, "geometry": {"type": "Point", "coordinates": [-92.54019, 33.32841]}}, {"type": "Feature", "properties": {"name": "Camden", "pop": 10165}, "geometry": {"type": "Point", "coordinates": [-92.84906, 33.56767]}}, {"type": "Feature", "properties": {"name": "Cammack Village", "pop": 754}, "geometry": {"type": "Point", "coordinates": [-92.34498, 34.7808]}}, {"type": "Feature", "properties": {"name": "Campbell Station", "pop": 227}, "geometry": {"type": "Point", "coordinates": [-91.25375, 35.6678]}}, {"type": "Feature", "properties": {"name": "Caraway", "pop": 1097}, "geometry": {"type": "Point", "coordinates": [-90.32208, 35.76022]}}, {"type": "Feature", "properties": {"name": "Carlisle", "pop": 2014}, "geometry": {"type": "Point", "coordinates": [-91.74049, 34.79543]}}, {"type": "Feature", "properties": {"name": "Carthage", "pop": 210}, "geometry": {"type": "Point", "coordinates": [-92.55531, 34.07261]}}, {"type": "Feature", "properties": {"name": "Casa", "pop": 127}, "geometry": {"type": "Point", "coordinates": [-93.04551, 35.02497]}}, {"type": "Feature", "properties": {"name": "Cash", "pop": 277}, "geometry": {"type": "Point", "coordinates": [-90.93165, 35.80116]}}, {"type": "Feature", "properties": {"name": "Caulksville", "pop": 156}, "geometry": {"type": "Point", "coordinates": [-93.86781, 35.30185]}}, {"type": "Feature", "properties": {"name": "Cave City", "pop": 1994}, "geometry": {"type": "Point", "coordinates": [-91.54675, 35.94817]}}, {"type": "Feature", "properties": {"name": "Cave Springs", "pop": 6081}, "geometry": {"type": "Point", "coordinates": [-94.2195, 36.26843]}}, {"type": "Feature", "properties": {"name": "Cedarville", "pop": 1438}, "geometry": {"type": "Point", "coordinates": [-94.3619, 35.58397]}}, {"type": "Feature", "properties": {"name": "Centerton", "pop": 23953}, "geometry": {"type": "Point", "coordinates": [-94.29769, 36.35515]}}, {"type": "Feature", "properties": {"name": "Central City", "pop": 466}, "geometry": {"type": "Point", "coordinates": [-94.23804, 35.33638]}}, {"type": "Feature", "properties": {"name": "Charleston", "pop": 2690}, "geometry": {"type": "Point", "coordinates": [-94.04835, 35.29451]}}, {"type": "Feature", "properties": {"name": "Cherokee Village", "pop": 4936}, "geometry": {"type": "Point", "coordinates": [-91.56937, 36.29132]}}, {"type": "Feature", "properties": {"name": "Cherry Valley", "pop": 567}, "geometry": {"type": "Point", "coordinates": [-90.75362, 35.40276]}}, {"type": "Feature", "properties": {"name": "Chester", "pop": 149}, "geometry": {"type": "Point", "coordinates": [-94.17783, 35.67777]}}, {"type": "Feature", "properties": {"name": "Chidester", "pop": 242}, "geometry": {"type": "Point", "coordinates": [-93.0238, 33.70195]}}, {"type": "Feature", "properties": {"name": "Clarendon", "pop": 1462}, "geometry": {"type": "Point", "coordinates": [-91.30629, 34.69297]}}, {"type": "Feature", "properties": {"name": "Clarkedale", "pop": 328}, "geometry": {"type": "Point", "coordinates": [-90.21025, 35.29703]}}, {"type": "Feature", "properties": {"name": "Clarksville", "pop": 9600}, "geometry": {"type": "Point", "coordinates": [-93.48156, 35.45392]}}, {"type": "Feature", "properties": {"name": "Clinton", "pop": 2524}, "geometry": {"type": "Point", "coordinates": [-92.45574, 35.57898]}}, {"type": "Feature", "properties": {"name": "Coal Hill", "pop": 811}, "geometry": {"type": "Point", "coordinates": [-93.66519, 35.43689]}}, {"type": "Feature", "properties": {"name": "Colt", "pop": 284}, "geometry": {"type": "Point", "coordinates": [-90.81293, 35.1329]}}, {"type": "Feature", "properties": {"name": "Concord", "pop": 193}, "geometry": {"type": "Point", "coordinates": [-91.86062, 35.66633]}}, {"type": "Feature", "properties": {"name": "Conway", "pop": 69580}, "geometry": {"type": "Point", "coordinates": [-92.467, 35.0744]}}, {"type": "Feature", "properties": {"name": "Corinth", "pop": 45}, "geometry": {"type": "Point", "coordinates": [-93.42009, 35.06951]}}, {"type": "Feature", "properties": {"name": "Corning", "pop": 3118}, "geometry": {"type": "Point", "coordinates": [-90.58361, 36.41368]}}, {"type": "Feature", "properties": {"name": "Cotter", "pop": 944}, "geometry": {"type": "Point", "coordinates": [-92.52082, 36.2819]}}, {"type": "Feature", "properties": {"name": "Cotton Plant", "pop": 499}, "geometry": {"type": "Point", "coordinates": [-91.25205, 35.00592]}}, {"type": "Feature", "properties": {"name": "Cove", "pop": 326}, "geometry": {"type": "Point", "coordinates": [-94.42232, 34.43898]}}, {"type": "Feature", "properties": {"name": "Coy", "pop": 85}, "geometry": {"type": "Point", "coordinates": [-91.8713, 34.54048]}}, {"type": "Feature", "properties": {"name": "Crawfordsville", "pop": 450}, "geometry": {"type": "Point", "coordinates": [-90.32417, 35.22667]}}, {"type": "Feature", "properties": {"name": "Crossett", "pop": 4578}, "geometry": {"type": "Point", "coordinates": [-91.95808, 33.12282]}}, {"type": "Feature", "properties": {"name": "Cushman", "pop": 446}, "geometry": {"type": "Point", "coordinates": [-91.77808, 35.86584]}}, {"type": "Feature", "properties": {"name": "Daisy", "pop": 85}, "geometry": {"type": "Point", "coordinates": [-93.73919, 34.23592]}}, {"type": "Feature", "properties": {"name": "Damascus", "pop": 391}, "geometry": {"type": "Point", "coordinates": [-92.41071, 35.36709]}}, {"type": "Feature", "properties": {"name": "Danville", "pop": 1997}, "geometry": {"type": "Point", "coordinates": [-93.3912, 35.05246]}}, {"type": "Feature", "properties": {"name": "Dardanelle", "pop": 4504}, "geometry": {"type": "Point", "coordinates": [-93.16591, 35.22631]}}, {"type": "Feature", "properties": {"name": "Datto", "pop": 64}, "geometry": {"type": "Point", "coordinates": [-90.7285, 36.39247]}}, {"type": "Feature", "properties": {"name": "Decatur", "pop": 1727}, "geometry": {"type": "Point", "coordinates": [-94.45804, 36.34853]}}, {"type": "Feature", "properties": {"name": "Delaplaine", "pop": 67}, "geometry": {"type": "Point", "coordinates": [-90.72565, 36.23039]}}, {"type": "Feature", "properties": {"name": "Delight", "pop": 286}, "geometry": {"type": "Point", "coordinates": [-93.50656, 34.02953]}}, {"type": "Feature", "properties": {"name": "Dell", "pop": 184}, "geometry": {"type": "Point", "coordinates": [-90.03408, 35.85717]}}, {"type": "Feature", "properties": {"name": "Denning", "pop": 205}, "geometry": {"type": "Point", "coordinates": [-93.75676, 35.42515]}}, {"type": "Feature", "properties": {"name": "De Queen", "pop": 6019}, "geometry": {"type": "Point", "coordinates": [-94.34213, 34.04225]}}, {"type": "Feature", "properties": {"name": "Dermott", "pop": 2497}, "geometry": {"type": "Point", "coordinates": [-91.4323, 33.52621]}}, {"type": "Feature", "properties": {"name": "Des Arc", "pop": 1845}, "geometry": {"type": "Point", "coordinates": [-91.50683, 34.97843]}}, {"type": "Feature", "properties": {"name": "De Valls Bluff", "pop": 502}, "geometry": {"type": "Point", "coordinates": [-91.46107, 34.78587]}}, {"type": "Feature", "properties": {"name": "DeWitt", "pop": 2893}, "geometry": {"type": "Point", "coordinates": [-91.33833, 34.28737]}}, {"type": "Feature", "properties": {"name": "Diamond City", "pop": 822}, "geometry": {"type": "Point", "coordinates": [-92.91099, 36.45761]}}, {"type": "Feature", "properties": {"name": "Diaz", "pop": 1220}, "geometry": {"type": "Point", "coordinates": [-91.25893, 35.64877]}}, {"type": "Feature", "properties": {"name": "Dierks", "pop": 894}, "geometry": {"type": "Point", "coordinates": [-94.01728, 34.11996]}}, {"type": "Feature", "properties": {"name": "Donaldson", "pop": 276}, "geometry": {"type": "Point", "coordinates": [-92.91952, 34.23498]}}, {"type": "Feature", "properties": {"name": "Dover", "pop": 1351}, "geometry": {"type": "Point", "coordinates": [-93.11424, 35.39098]}}, {"type": "Feature", "properties": {"name": "Dumas", "pop": 3662}, "geometry": {"type": "Point", "coordinates": [-91.48563, 33.88337]}}, {"type": "Feature", "properties": {"name": "Dyer", "pop": 781}, "geometry": {"type": "Point", "coordinates": [-94.13881, 35.49437]}}, {"type": "Feature", "properties": {"name": "Dyess", "pop": 322}, "geometry": {"type": "Point", "coordinates": [-90.21329, 35.58934]}}, {"type": "Feature", "properties": {"name": "Earle", "pop": 1768}, "geometry": {"type": "Point", "coordinates": [-90.4643, 35.27338]}}, {"type": "Feature", "properties": {"name": "East Camden", "pop": 766}, "geometry": {"type": "Point", "coordinates": [-92.74497, 33.60842]}}, {"type": "Feature", "properties": {"name": "Edmondson", "pop": 239}, "geometry": {"type": "Point", "coordinates": [-90.30545, 35.10504]}}, {"type": "Feature", "properties": {"name": "Egypt", "pop": 109}, "geometry": {"type": "Point", "coordinates": [-90.94583, 35.86778]}}, {"type": "Feature", "properties": {"name": "Elaine", "pop": 456}, "geometry": {"type": "Point", "coordinates": [-90.85335, 34.3086]}}, {"type": "Feature", "properties": {"name": "El Dorado", "pop": 16869}, "geometry": {"type": "Point", "coordinates": [-92.66407, 33.21898]}}, {"type": "Feature", "properties": {"name": "Elkins", "pop": 3889}, "geometry": {"type": "Point", "coordinates": [-94.0235, 36.01722]}}, {"type": "Feature", "properties": {"name": "Elm Springs", "pop": 2847}, "geometry": {"type": "Point", "coordinates": [-94.2379, 36.20622]}}, {"type": "Feature", "properties": {"name": "Emerson", "pop": 286}, "geometry": {"type": "Point", "coordinates": [-93.19598, 33.09733]}}, {"type": "Feature", "properties": {"name": "Emmet", "pop": 401}, "geometry": {"type": "Point", "coordinates": [-93.46616, 33.72254]}}, {"type": "Feature", "properties": {"name": "England", "pop": 2441}, "geometry": {"type": "Point", "coordinates": [-91.96744, 34.54543]}}, {"type": "Feature", "properties": {"name": "Enola", "pop": 322}, "geometry": {"type": "Point", "coordinates": [-92.20658, 35.19591]}}, {"type": "Feature", "properties": {"name": "Etowah", "pop": 241}, "geometry": {"type": "Point", "coordinates": [-90.23068, 35.71576]}}, {"type": "Feature", "properties": {"name": "Eudora", "pop": 1601}, "geometry": {"type": "Point", "coordinates": [-91.26403, 33.11887]}}, {"type": "Feature", "properties": {"name": "Eureka Springs", "pop": 2190}, "geometry": {"type": "Point", "coordinates": [-93.7449, 36.41077]}}, {"type": "Feature", "properties": {"name": "Evening Shade", "pop": 430}, "geometry": {"type": "Point", "coordinates": [-91.62188, 36.06993]}}, {"type": "Feature", "properties": {"name": "Everton", "pop": 104}, "geometry": {"type": "Point", "coordinates": [-92.90954, 36.15414]}}, {"type": "Feature", "properties": {"name": "Fairfield Bay", "pop": 2165}, "geometry": {"type": "Point", "coordinates": [-92.26621, 35.6011]}}, {"type": "Feature", "properties": {"name": "Fargo", "pop": 57}, "geometry": {"type": "Point", "coordinates": [-91.17974, 34.95399]}}, {"type": "Feature", "properties": {"name": "Farmington", "pop": 9761}, "geometry": {"type": "Point", "coordinates": [-94.25247, 36.03658]}}, {"type": "Feature", "properties": {"name": "Fayetteville", "pop": 101680}, "geometry": {"type": "Point", "coordinates": [-94.16656, 36.07146]}}, {"type": "Feature", "properties": {"name": "Felsenthal", "pop": 85}, "geometry": {"type": "Point", "coordinates": [-92.14896, 33.06083]}}, {"type": "Feature", "properties": {"name": "Fifty-Six", "pop": 160}, "geometry": {"type": "Point", "coordinates": [-92.23336, 35.96351]}}, {"type": "Feature", "properties": {"name": "Fisher", "pop": 173}, "geometry": {"type": "Point", "coordinates": [-90.97249, 35.49142]}}, {"type": "Feature", "properties": {"name": "Flippin", "pop": 1331}, "geometry": {"type": "Point", "coordinates": [-92.59353, 36.27732]}}, {"type": "Feature", "properties": {"name": "Fordyce", "pop": 3225}, "geometry": {"type": "Point", "coordinates": [-92.41697, 33.81824]}}, {"type": "Feature", "properties": {"name": "Foreman", "pop": 950}, "geometry": {"type": "Point", "coordinates": [-94.39767, 33.71949]}}, {"type": "Feature", "properties": {"name": "Forrest City", "pop": 12490}, "geometry": {"type": "Point", "coordinates": [-90.79321, 35.0136]}}, {"type": "Feature", "properties": {"name": "Fort Smith", "pop": 89770}, "geometry": {"type": "Point", "coordinates": [-94.37088, 35.34928]}}, {"type": "Feature", "properties": {"name": "Fouke", "pop": 813}, "geometry": {"type": "Point", "coordinates": [-93.88523, 33.26223]}}, {"type": "Feature", "properties": {"name": "Fountain Hill", "pop": 106}, "geometry": {"type": "Point", "coordinates": [-91.85114, 33.35755]}}, {"type": "Feature", "properties": {"name": "Fountain Lake", "pop": 474}, "geometry": {"type": "Point", "coordinates": [-92.91977, 34.60985]}}, {"type": "Feature", "properties": {"name": "Fourche", "pop": 57}, "geometry": {"type": "Point", "coordinates": [-92.61894, 34.99313]}}, {"type": "Feature", "properties": {"name": "Franklin", "pop": 198}, "geometry": {"type": "Point", "coordinates": [-91.76972, 36.1727]}}, {"type": "Feature", "properties": {"name": "Fredonia (Biscoe)", "pop": 297}, "geometry": {"type": "Point", "coordinates": [-91.41016, 34.81937]}}, {"type": "Feature", "properties": {"name": "Friendship", "pop": 159}, "geometry": {"type": "Point", "coordinates": [-93.00366, 34.22434]}}, {"type": "Feature", "properties": {"name": "Fulton", "pop": 111}, "geometry": {"type": "Point", "coordinates": [-93.81379, 33.61256]}}, {"type": "Feature", "properties": {"name": "Garfield", "pop": 610}, "geometry": {"type": "Point", "coordinates": [-93.97578, 36.45543]}}, {"type": "Feature", "properties": {"name": "Garland", "pop": 196}, "geometry": {"type": "Point", "coordinates": [-93.71417, 33.36096]}}, {"type": "Feature", "properties": {"name": "Garner", "pop": 214}, "geometry": {"type": "Point", "coordinates": [-91.77918, 35.1425]}}, {"type": "Feature", "properties": {"name": "Gassville", "pop": 2223}, "geometry": {"type": "Point", "coordinates": [-92.48683, 36.28495]}}, {"type": "Feature", "properties": {"name": "Gateway", "pop": 444}, "geometry": {"type": "Point", "coordinates": [-93.93309, 36.4889]}}, {"type": "Feature", "properties": {"name": "Gentry", "pop": 4449}, "geometry": {"type": "Point", "coordinates": [-94.49088, 36.25955]}}, {"type": "Feature", "properties": {"name": "Georgetown", "pop": 84}, "geometry": {"type": "Point", "coordinates": [-91.45392, 35.12668]}}, {"type": "Feature", "properties": {"name": "Gilbert", "pop": 25}, "geometry": {"type": "Point", "coordinates": [-92.71618, 35.99098]}}, {"type": "Feature", "properties": {"name": "Gillett", "pop": 599}, "geometry": {"type": "Point", "coordinates": [-91.37913, 34.11917]}}, {"type": "Feature", "properties": {"name": "Gillham", "pop": 158}, "geometry": {"type": "Point", "coordinates": [-94.31298, 34.16863]}}, {"type": "Feature", "properties": {"name": "Gilmore", "pop": 173}, "geometry": {"type": "Point", "coordinates": [-90.29558, 35.41399]}}, {"type": "Feature", "properties": {"name": "Glenwood", "pop": 2070}, "geometry": {"type": "Point", "coordinates": [-93.52725, 34.32831]}}, {"type": "Feature", "properties": {"name": "Goshen", "pop": 2299}, "geometry": {"type": "Point", "coordinates": [-94.00158, 36.10246]}}, {"type": "Feature", "properties": {"name": "Gosnell", "pop": 2733}, "geometry": {"type": "Point", "coordinates": [-89.96858, 35.96494]}}, {"type": "Feature", "properties": {"name": "Gould", "pop": 632}, "geometry": {"type": "Point", "coordinates": [-91.56404, 33.98719]}}, {"type": "Feature", "properties": {"name": "Grady", "pop": 293}, "geometry": {"type": "Point", "coordinates": [-91.69764, 34.07249]}}, {"type": "Feature", "properties": {"name": "Grannis", "pop": 499}, "geometry": {"type": "Point", "coordinates": [-94.322, 34.24016]}}, {"type": "Feature", "properties": {"name": "Gravette", "pop": 3750}, "geometry": {"type": "Point", "coordinates": [-94.36853, 36.4283]}}, {"type": "Feature", "properties": {"name": "Greenbrier", "pop": 6170}, "geometry": {"type": "Point", "coordinates": [-92.38357, 35.22884]}}, {"type": "Feature", "properties": {"name": "Green Forest", "pop": 3160}, "geometry": {"type": "Point", "coordinates": [-93.43096, 36.33471]}}, {"type": "Feature", "properties": {"name": "Greenland", "pop": 1220}, "geometry": {"type": "Point", "coordinates": [-94.19089, 35.99619]}}, {"type": "Feature", "properties": {"name": "Greenway", "pop": 171}, "geometry": {"type": "Point", "coordinates": [-90.22212, 36.34058]}}, {"type": "Feature", "properties": {"name": "Greenwood", "pop": 9671}, "geometry": {"type": "Point", "coordinates": [-94.27639, 35.22686]}}, {"type": "Feature", "properties": {"name": "Greers Ferry", "pop": 842}, "geometry": {"type": "Point", "coordinates": [-92.16596, 35.57497]}}, {"type": "Feature", "properties": {"name": "Griffithville", "pop": 156}, "geometry": {"type": "Point", "coordinates": [-91.64497, 35.12305]}}, {"type": "Feature", "properties": {"name": "Grubbs", "pop": 304}, "geometry": {"type": "Point", "coordinates": [-91.07546, 35.654]}}, {"type": "Feature", "properties": {"name": "Guion", "pop": 72}, "geometry": {"type": "Point", "coordinates": [-91.93893, 35.92683]}}, {"type": "Feature", "properties": {"name": "Gum Springs", "pop": 91}, "geometry": {"type": "Point", "coordinates": [-93.09571, 34.06394]}}, {"type": "Feature", "properties": {"name": "Gurdon", "pop": 1836}, "geometry": {"type": "Point", "coordinates": [-93.15391, 33.91603]}}, {"type": "Feature", "properties": {"name": "Guy", "pop": 744}, "geometry": {"type": "Point", "coordinates": [-92.33666, 35.32732]}}, {"type": "Feature", "properties": {"name": "Hackett", "pop": 845}, "geometry": {"type": "Point", "coordinates": [-94.41034, 35.18803]}}, {"type": "Feature", "properties": {"name": "Hamburg", "pop": 2413}, "geometry": {"type": "Point", "coordinates": [-91.79725, 33.22476]}}, {"type": "Feature", "properties": {"name": "Hampton", "pop": 1145}, "geometry": {"type": "Point", "coordinates": [-92.46661, 33.53476]}}, {"type": "Feature", "properties": {"name": "Hardy", "pop": 764}, "geometry": {"type": "Point", "coordinates": [-91.4815, 36.31965]}}, {"type": "Feature", "properties": {"name": "Harrell", "pop": 204}, "geometry": {"type": "Point", "coordinates": [-92.40006, 33.50987]}}, {"type": "Feature", "properties": {"name": "Harrisburg", "pop": 2209}, "geometry": {"type": "Point", "coordinates": [-90.72161, 35.56377]}}, {"type": "Feature", "properties": {"name": "Harrison", "pop": 13409}, "geometry": {"type": "Point", "coordinates": [-93.11765, 36.24259]}}, {"type": "Feature", "properties": {"name": "Hartford", "pop": 497}, "geometry": {"type": "Point", "coordinates": [-94.37941, 35.02343]}}, {"type": "Feature", "properties": {"name": "Hartman", "pop": 516}, "geometry": {"type": "Point", "coordinates": [-93.62825, 35.43525]}}, {"type": "Feature", "properties": {"name": "Haskell", "pop": 4138}, "geometry": {"type": "Point", "coordinates": [-92.64186, 34.50924]}}, {"type": "Feature", "properties": {"name": "Hatfield", "pop": 343}, "geometry": {"type": "Point", "coordinates": [-94.37991, 34.48451]}}, {"type": "Feature", "properties": {"name": "Havana", "pop": 237}, "geometry": {"type": "Point", "coordinates": [-93.52602, 35.10981]}}, {"type": "Feature", "properties": {"name": "Haynes", "pop": 113}, "geometry": {"type": "Point", "coordinates": [-90.79266, 34.89093]}}, {"type": "Feature", "properties": {"name": "Hazen", "pop": 1423}, "geometry": {"type": "Point", "coordinates": [-91.55806, 34.78137]}}, {"type": "Feature", "properties": {"name": "Heber Springs", "pop": 7239}, "geometry": {"type": "Point", "coordinates": [-92.02934, 35.49955]}}, {"type": "Feature", "properties": {"name": "Hector", "pop": 419}, "geometry": {"type": "Point", "coordinates": [-92.97913, 35.46291]}}, {"type": "Feature", "properties": {"name": "Helena-West Helena", "pop": 8670}, "geometry": {"type": "Point", "coordinates": [-90.6201, 34.53136]}}, {"type": "Feature", "properties": {"name": "Hermitage", "pop": 506}, "geometry": {"type": "Point", "coordinates": [-92.17145, 33.44737]}}, {"type": "Feature", "properties": {"name": "Hickory Ridge", "pop": 229}, "geometry": {"type": "Point", "coordinates": [-90.99446, 35.40281]}}, {"type": "Feature", "properties": {"name": "Higden", "pop": 118}, "geometry": {"type": "Point", "coordinates": [-92.20518, 35.56641]}}, {"type": "Feature", "properties": {"name": "Higginson", "pop": 851}, "geometry": {"type": "Point", "coordinates": [-91.71518, 35.19681]}}, {"type": "Feature", "properties": {"name": "Highfill", "pop": 2417}, "geometry": {"type": "Point", "coordinates": [-94.32386, 36.27437]}}, {"type": "Feature", "properties": {"name": "Highland", "pop": 1041}, "geometry": {"type": "Point", "coordinates": [-91.51982, 36.26943]}}, {"type": "Feature", "properties": {"name": "Hindsville", "pop": 94}, "geometry": {"type": "Point", "coordinates": [-93.86488, 36.14772]}}, {"type": "Feature", "properties": {"name": "Holiday Island", "pop": 2415}, "geometry": {"type": "Point", "coordinates": [-93.73683, 36.48421]}}, {"type": "Feature", "properties": {"name": "Holland", "pop": 595}, "geometry": {"type": "Point", "coordinates": [-92.27705, 35.16601]}}, {"type": "Feature", "properties": {"name": "Holly Grove", "pop": 443}, "geometry": {"type": "Point", "coordinates": [-91.20025, 34.6015]}}, {"type": "Feature", "properties": {"name": "Hope", "pop": 8558}, "geometry": {"type": "Point", "coordinates": [-93.58889, 33.66816]}}, {"type": "Feature", "properties": {"name": "Horatio", "pop": 897}, "geometry": {"type": "Point", "coordinates": [-94.3562, 33.94274]}}, {"type": "Feature", "properties": {"name": "Horseshoe Bend", "pop": 2543}, "geometry": {"type": "Point", "coordinates": [-91.73832, 36.21873]}}, {"type": "Feature", "properties": {"name": "Horseshoe Lake", "pop": 255}, "geometry": {"type": "Point", "coordinates": [-90.30772, 34.91375]}}, {"type": "Feature", "properties": {"name": "Hot Springs", "pop": 37994}, "geometry": {"type": "Point", "coordinates": [-93.05025, 34.48944]}}, {"type": "Feature", "properties": {"name": "Houston", "pop": 148}, "geometry": {"type": "Point", "coordinates": [-92.69452, 35.03488]}}, {"type": "Feature", "properties": {"name": "Hoxie", "pop": 2609}, "geometry": {"type": "Point", "coordinates": [-90.97359, 36.03604]}}, {"type": "Feature", "properties": {"name": "Hughes", "pop": 992}, "geometry": {"type": "Point", "coordinates": [-90.47137, 34.94811]}}, {"type": "Feature", "properties": {"name": "Humnoke", "pop": 213}, "geometry": {"type": "Point", "coordinates": [-91.75966, 34.54224]}}, {"type": "Feature", "properties": {"name": "Humphrey", "pop": 445}, "geometry": {"type": "Point", "coordinates": [-91.70245, 34.42237]}}, {"type": "Feature", "properties": {"name": "Hunter", "pop": 103}, "geometry": {"type": "Point", "coordinates": [-91.12286, 35.05456]}}, {"type": "Feature", "properties": {"name": "Huntington", "pop": 489}, "geometry": {"type": "Point", "coordinates": [-94.26632, 35.08171]}}, {"type": "Feature", "properties": {"name": "Huntsville", "pop": 3378}, "geometry": {"type": "Point", "coordinates": [-93.73324, 36.09866]}}, {"type": "Feature", "properties": {"name": "Huttig", "pop": 431}, "geometry": {"type": "Point", "coordinates": [-92.17968, 33.04032]}}, {"type": "Feature", "properties": {"name": "Imboden", "pop": 641}, "geometry": {"type": "Point", "coordinates": [-91.17739, 36.1997]}}, {"type": "Feature", "properties": {"name": "Jacksonport", "pop": 148}, "geometry": {"type": "Point", "coordinates": [-91.30791, 35.64218]}}, {"type": "Feature", "properties": {"name": "Jacksonville", "pop": 29094}, "geometry": {"type": "Point", "coordinates": [-92.13059, 34.88051]}}, {"type": "Feature", "properties": {"name": "Jasper", "pop": 521}, "geometry": {"type": "Point", "coordinates": [-93.1875, 36.0121]}}, {"type": "Feature", "properties": {"name": "Jennette", "pop": 117}, "geometry": {"type": "Point", "coordinates": [-90.41876, 35.15813]}}, {"type": "Feature", "properties": {"name": "Jericho", "pop": 99}, "geometry": {"type": "Point", "coordinates": [-90.23047, 35.28768]}}, {"type": "Feature", "properties": {"name": "Johnson", "pop": 3672}, "geometry": {"type": "Point", "coordinates": [-94.17427, 36.13385]}}, {"type": "Feature", "properties": {"name": "Joiner", "pop": 473}, "geometry": {"type": "Point", "coordinates": [-90.15071, 35.50739]}}, {"type": "Feature", "properties": {"name": "Jonesboro", "pop": 80650}, "geometry": {"type": "Point", "coordinates": [-90.67903, 35.81976]}}, {"type": "Feature", "properties": {"name": "Judsonia", "pop": 1881}, "geometry": {"type": "Point", "coordinates": [-91.64161, 35.27643]}}, {"type": "Feature", "properties": {"name": "Junction City", "pop": 480}, "geometry": {"type": "Point", "coordinates": [-92.72362, 33.02209]}}, {"type": "Feature", "properties": {"name": "Keiser", "pop": 719}, "geometry": {"type": "Point", "coordinates": [-90.09602, 35.67401]}}, {"type": "Feature", "properties": {"name": "Kensett", "pop": 1404}, "geometry": {"type": "Point", "coordinates": [-91.67126, 35.2352]}}, {"type": "Feature", "properties": {"name": "Keo", "pop": 203}, "geometry": {"type": "Point", "coordinates": [-92.01157, 34.60929]}}, {"type": "Feature", "properties": {"name": "Kibler", "pop": 1034}, "geometry": {"type": "Point", "coordinates": [-94.23614, 35.42524]}}, {"type": "Feature", "properties": {"name": "Kingsland", "pop": 336}, "geometry": {"type": "Point", "coordinates": [-92.29779, 33.85798]}}, {"type": "Feature", "properties": {"name": "Knobel", "pop": 144}, "geometry": {"type": "Point", "coordinates": [-90.60227, 36.31999]}}, {"type": "Feature", "properties": {"name": "Knoxville", "pop": 662}, "geometry": {"type": "Point", "coordinates": [-93.36184, 35.37754]}}, {"type": "Feature", "properties": {"name": "Lafe", "pop": 417}, "geometry": {"type": "Point", "coordinates": [-90.50429, 36.20918]}}, {"type": "Feature", "properties": {"name": "LaGrange", "pop": 46}, "geometry": {"type": "Point", "coordinates": [-90.73474, 34.65576]}}, {"type": "Feature", "properties": {"name": "Lake City", "pop": 2628}, "geometry": {"type": "Point", "coordinates": [-90.45391, 35.81937]}}, {"type": "Feature", "properties": {"name": "Lakeview", "pop": 786}, "geometry": {"type": "Point", "coordinates": [-92.53874, 36.37391]}}, {"type": "Feature", "properties": {"name": "Lake View", "pop": 296}, "geometry": {"type": "Point", "coordinates": [-90.81331, 34.42116]}}, {"type": "Feature", "properties": {"name": "Lake Village", "pop": 1912}, "geometry": {"type": "Point", "coordinates": [-91.28479, 33.32918]}}, {"type": "Feature", "properties": {"name": "Lamar", "pop": 1755}, "geometry": {"type": "Point", "coordinates": [-93.39468, 35.44443]}}, {"type": "Feature", "properties": {"name": "Lavaca", "pop": 2514}, "geometry": {"type": "Point", "coordinates": [-94.18288, 35.3302]}}, {"type": "Feature", "properties": {"name": "Leachville", "pop": 1924}, "geometry": {"type": "Point", "coordinates": [-90.25495, 35.91147]}}, {"type": "Feature", "properties": {"name": "Lead Hill", "pop": 284}, "geometry": {"type": "Point", "coordinates": [-92.90717, 36.41361]}}, {"type": "Feature", "properties": {"name": "Leola", "pop": 465}, "geometry": {"type": "Point", "coordinates": [-92.59141, 34.17009]}}, {"type": "Feature", "properties": {"name": "Lepanto", "pop": 1660}, "geometry": {"type": "Point", "coordinates": [-90.33298, 35.60853]}}, {"type": "Feature", "properties": {"name": "Leslie", "pop": 374}, "geometry": {"type": "Point", "coordinates": [-92.55596, 35.82951]}}, {"type": "Feature", "properties": {"name": "Letona", "pop": 237}, "geometry": {"type": "Point", "coordinates": [-91.82955, 35.3635]}}, {"type": "Feature", "properties": {"name": "Lewisville", "pop": 876}, "geometry": {"type": "Point", "coordinates": [-93.58397, 33.36013]}}, {"type": "Feature", "properties": {"name": "Lexa", "pop": 187}, "geometry": {"type": "Point", "coordinates": [-90.75189, 34.59825]}}, {"type": "Feature", "properties": {"name": "Lincoln", "pop": 2355}, "geometry": {"type": "Point", "coordinates": [-94.41747, 35.94883]}}, {"type": "Feature", "properties": {"name": "Little Flock", "pop": 3037}, "geometry": {"type": "Point", "coordinates": [-94.13726, 36.38334]}}, {"type": "Feature", "properties": {"name": "Little Rock", "pop": 203842}, "geometry": {"type": "Point", "coordinates": [-92.35856, 34.72539]}}, {"type": "Feature", "properties": {"name": "Lockesburg", "pop": 594}, "geometry": {"type": "Point", "coordinates": [-94.17958, 33.97287]}}, {"type": "Feature", "properties": {"name": "London", "pop": 1036}, "geometry": {"type": "Point", "coordinates": [-93.24347, 35.32762]}}, {"type": "Feature", "properties": {"name": "Lonoke", "pop": 4277}, "geometry": {"type": "Point", "coordinates": [-91.90736, 34.7905]}}, {"type": "Feature", "properties": {"name": "Lonsdale", "pop": 107}, "geometry": {"type": "Point", "coordinates": [-92.81056, 34.54497]}}, {"type": "Feature", "properties": {"name": "Louann", "pop": 146}, "geometry": {"type": "Point", "coordinates": [-92.79221, 33.39148]}}, {"type": "Feature", "properties": {"name": "Lowell", "pop": 11466}, "geometry": {"type": "Point", "coordinates": [-94.15336, 36.25585]}}, {"type": "Feature", "properties": {"name": "Luxora", "pop": 882}, "geometry": {"type": "Point", "coordinates": [-89.92948, 35.75767]}}, {"type": "Feature", "properties": {"name": "Lynn", "pop": 254}, "geometry": {"type": "Point", "coordinates": [-91.252, 36.00426]}}, {"type": "Feature", "properties": {"name": "McCaskill", "pop": 56}, "geometry": {"type": "Point", "coordinates": [-93.63683, 33.91954]}}, {"type": "Feature", "properties": {"name": "McCrory", "pop": 1499}, "geometry": {"type": "Point", "coordinates": [-91.19728, 35.25733]}}, {"type": "Feature", "properties": {"name": "McDougal", "pop": 130}, "geometry": {"type": "Point", "coordinates": [-90.39073, 36.43646]}}, {"type": "Feature", "properties": {"name": "McGehee", "pop": 3555}, "geometry": {"type": "Point", "coordinates": [-91.39501, 33.62779]}}, {"type": "Feature", "properties": {"name": "McNab", "pop": 29}, "geometry": {"type": "Point", "coordinates": [-93.83228, 33.66089]}}, {"type": "Feature", "properties": {"name": "McNeil", "pop": 373}, "geometry": {"type": "Point", "coordinates": [-93.2084, 33.34792]}}, {"type": "Feature", "properties": {"name": "McRae", "pop": 611}, "geometry": {"type": "Point", "coordinates": [-91.82619, 35.11363]}}, {"type": "Feature", "properties": {"name": "Madison", "pop": 717}, "geometry": {"type": "Point", "coordinates": [-90.73115, 35.01799]}}, {"type": "Feature", "properties": {"name": "Magazine", "pop": 744}, "geometry": {"type": "Point", "coordinates": [-93.80785, 35.1539]}}, {"type": "Feature", "properties": {"name": "Magness", "pop": 225}, "geometry": {"type": "Point", "coordinates": [-91.48224, 35.70305]}}, {"type": "Feature", "properties": {"name": "Magnolia", "pop": 10769}, "geometry": {"type": "Point", "coordinates": [-93.22625, 33.2767]}}, {"type": "Feature", "properties": {"name": "Malvern", "pop": 11080}, "geometry": {"type": "Point", "coordinates": [-92.82125, 34.37358]}}, {"type": "Feature", "properties": {"name": "Mammoth Spring", "pop": 942}, "geometry": {"type": "Point", "coordinates": [-91.54107, 36.49241]}}, {"type": "Feature", "properties": {"name": "Manila", "pop": 3714}, "geometry": {"type": "Point", "coordinates": [-90.1654, 35.88491]}}, {"type": "Feature", "properties": {"name": "Mansfield", "pop": 1052}, "geometry": {"type": "Point", "coordinates": [-94.23427, 35.06392]}}, {"type": "Feature", "properties": {"name": "Marianna", "pop": 3314}, "geometry": {"type": "Point", "coordinates": [-90.7675, 34.77363]}}, {"type": "Feature", "properties": {"name": "Marie", "pop": 100}, "geometry": {"type": "Point", "coordinates": [-90.08296, 35.61293]}}, {"type": "Feature", "properties": {"name": "Marion", "pop": 13654}, "geometry": {"type": "Point", "coordinates": [-90.20672, 35.20425]}}, {"type": "Feature", "properties": {"name": "Marked Tree", "pop": 2202}, "geometry": {"type": "Point", "coordinates": [-90.42661, 35.52789]}}, {"type": "Feature", "properties": {"name": "Marmaduke", "pop": 1238}, "geometry": {"type": "Point", "coordinates": [-90.38506, 36.19003]}}, {"type": "Feature", "properties": {"name": "Marshall", "pop": 1315}, "geometry": {"type": "Point", "coordinates": [-92.6465, 35.90846]}}, {"type": "Feature", "properties": {"name": "Marvell", "pop": 755}, "geometry": {"type": "Point", "coordinates": [-90.91534, 34.5563]}}, {"type": "Feature", "properties": {"name": "Maumelle", "pop": 19452}, "geometry": {"type": "Point", "coordinates": [-92.4, 34.85234]}}, {"type": "Feature", "properties": {"name": "Mayflower", "pop": 2326}, "geometry": {"type": "Point", "coordinates": [-92.42673, 34.9662]}}, {"type": "Feature", "properties": {"name": "Maynard", "pop": 376}, "geometry": {"type": "Point", "coordinates": [-90.9018, 36.42149]}}, {"type": "Feature", "properties": {"name": "Melbourne", "pop": 1883}, "geometry": {"type": "Point", "coordinates": [-91.88152, 36.06397]}}, {"type": "Feature", "properties": {"name": "Mena", "pop": 5618}, "geometry": {"type": "Point", "coordinates": [-94.2371, 34.58083]}}, {"type": "Feature", "properties": {"name": "Menifee", "pop": 295}, "geometry": {"type": "Point", "coordinates": [-92.55042, 35.1497]}}, {"type": "Feature", "properties": {"name": "Midland", "pop": 225}, "geometry": {"type": "Point", "coordinates": [-94.35295, 35.0924]}}, {"type": "Feature", "properties": {"name": "Midway", "pop": 371}, "geometry": {"type": "Point", "coordinates": [-92.97343, 34.24989]}}, {"type": "Feature", "properties": {"name": "Mineral Springs", "pop": 1060}, "geometry": {"type": "Point", "coordinates": [-93.92139, 33.87772]}}, {"type": "Feature", "properties": {"name": "Minturn", "pop": 89}, "geometry": {"type": "Point", "coordinates": [-91.02719, 35.97642]}}, {"type": "Feature", "properties": {"name": "Mitchellville", "pop": 272}, "geometry": {"type": "Point", "coordinates": [-91.4984, 33.90533]}}, {"type": "Feature", "properties": {"name": "Monette", "pop": 1603}, "geometry": {"type": "Point", "coordinates": [-90.34411, 35.89321]}}, {"type": "Feature", "properties": {"name": "Monticello", "pop": 8175}, "geometry": {"type": "Point", "coordinates": [-91.79372, 33.62478]}}, {"type": "Feature", "properties": {"name": "Montrose", "pop": 232}, "geometry": {"type": "Point", "coordinates": [-91.49644, 33.29892]}}, {"type": "Feature", "properties": {"name": "Moorefield", "pop": 120}, "geometry": {"type": "Point", "coordinates": [-91.57081, 35.76723]}}, {"type": "Feature", "properties": {"name": "Moro", "pop": 168}, "geometry": {"type": "Point", "coordinates": [-90.98798, 34.79198]}}, {"type": "Feature", "properties": {"name": "Morrilton", "pop": 7083}, "geometry": {"type": "Point", "coordinates": [-92.73893, 35.15546]}}, {"type": "Feature", "properties": {"name": "Morrison Bluff", "pop": 78}, "geometry": {"type": "Point", "coordinates": [-93.51885, 35.38195]}}, {"type": "Feature", "properties": {"name": "Mountainburg", "pop": 529}, "geometry": {"type": "Point", "coordinates": [-94.16241, 35.64963]}}, {"type": "Feature", "properties": {"name": "Mountain Home", "pop": 13278}, "geometry": {"type": "Point", "coordinates": [-92.38404, 36.33512]}}, {"type": "Feature", "properties": {"name": "Mountain Pine", "pop": 573}, "geometry": {"type": "Point", "coordinates": [-93.17149, 34.56964]}}, {"type": "Feature", "properties": {"name": "Mountain View", "pop": 2931}, "geometry": {"type": "Point", "coordinates": [-92.10966, 35.86156]}}, {"type": "Feature", "properties": {"name": "Mount Ida", "pop": 1005}, "geometry": {"type": "Point", "coordinates": [-93.62994, 34.54915]}}, {"type": "Feature", "properties": {"name": "Mount Pleasant", "pop": 368}, "geometry": {"type": "Point", "coordinates": [-91.77738, 35.98142]}}, {"type": "Feature", "properties": {"name": "Mount Vernon", "pop": 146}, "geometry": {"type": "Point", "coordinates": [-92.12398, 35.2236]}}, {"type": "Feature", "properties": {"name": "Mulberry", "pop": 1616}, "geometry": {"type": "Point", "coordinates": [-94.07475, 35.5085]}}, {"type": "Feature", "properties": {"name": "Murfreesboro", "pop": 1498}, "geometry": {"type": "Point", "coordinates": [-93.69407, 34.07031]}}, {"type": "Feature", "properties": {"name": "Nashville", "pop": 4043}, "geometry": {"type": "Point", "coordinates": [-93.85166, 33.94192]}}, {"type": "Feature", "properties": {"name": "Newark", "pop": 1178}, "geometry": {"type": "Point", "coordinates": [-91.4434, 35.70763]}}, {"type": "Feature", "properties": {"name": "Newport", "pop": 8089}, "geometry": {"type": "Point", "coordinates": [-91.23168, 35.62377]}}, {"type": "Feature", "properties": {"name": "Nimmons", "pop": 64}, "geometry": {"type": "Point", "coordinates": [-90.09506, 36.30625]}}, {"type": "Feature", "properties": {"name": "Norfork", "pop": 474}, "geometry": {"type": "Point", "coordinates": [-92.27784, 36.20947]}}, {"type": "Feature", "properties": {"name": "Norman", "pop": 309}, "geometry": {"type": "Point", "coordinates": [-93.67682, 34.45898]}}, {"type": "Feature", "properties": {"name": "Norphlet", "pop": 727}, "geometry": {"type": "Point", "coordinates": [-92.66201, 33.31989]}}, {"type": "Feature", "properties": {"name": "North Little Rock", "pop": 64531}, "geometry": {"type": "Point", "coordinates": [-92.23506, 34.78175]}}, {"type": "Feature", "properties": {"name": "Oak Grove", "pop": 387}, "geometry": {"type": "Point", "coordinates": [-93.43014, 36.46396]}}, {"type": "Feature", "properties": {"name": "Oak Grove Heights", "pop": 1149}, "geometry": {"type": "Point", "coordinates": [-90.50343, 36.12643]}}, {"type": "Feature", "properties": {"name": "Oakhaven", "pop": 66}, "geometry": {"type": "Point", "coordinates": [-93.62078, 33.7294]}}, {"type": "Feature", "properties": {"name": "Oden", "pop": 185}, "geometry": {"type": "Point", "coordinates": [-93.78365, 34.62315]}}, {"type": "Feature", "properties": {"name": "Ogden", "pop": 126}, "geometry": {"type": "Point", "coordinates": [-94.04692, 33.58587]}}, {"type": "Feature", "properties": {"name": "Oil Trough", "pop": 223}, "geometry": {"type": "Point", "coordinates": [-91.46123, 35.62916]}}, {"type": "Feature", "properties": {"name": "O'Kean", "pop": 196}, "geometry": {"type": "Point", "coordinates": [-90.81835, 36.17146]}}, {"type": "Feature", "properties": {"name": "Okolona", "pop": 98}, "geometry": {"type": "Point", "coordinates": [-93.33762, 34.00048]}}, {"type": "Feature", "properties": {"name": "Ola", "pop": 920}, "geometry": {"type": "Point", "coordinates": [-93.22404, 35.03145]}}, {"type": "Feature", "properties": {"name": "Omaha", "pop": 128}, "geometry": {"type": "Point", "coordinates": [-93.18996, 36.46165]}}, {"type": "Feature", "properties": {"name": "Oppelo", "pop": 747}, "geometry": {"type": "Point", "coordinates": [-92.77357, 35.10056]}}, {"type": "Feature", "properties": {"name": "Osceola", "pop": 6610}, "geometry": {"type": "Point", "coordinates": [-89.99342, 35.6942]}}, {"type": "Feature", "properties": {"name": "Oxford", "pop": 601}, "geometry": {"type": "Point", "coordinates": [-91.91827, 36.20903]}}, {"type": "Feature", "properties": {"name": "Ozan", "pop": 49}, "geometry": {"type": "Point", "coordinates": [-93.72082, 33.84661]}}, {"type": "Feature", "properties": {"name": "Ozark", "pop": 3590}, "geometry": {"type": "Point", "coordinates": [-93.84838, 35.50186]}}, {"type": "Feature", "properties": {"name": "Palestine", "pop": 480}, "geometry": {"type": "Point", "coordinates": [-90.90823, 34.97031]}}, {"type": "Feature", "properties": {"name": "Pangburn", "pop": 498}, "geometry": {"type": "Point", "coordinates": [-91.83941, 35.42611]}}, {"type": "Feature", "properties": {"name": "Paragould", "pop": 30520}, "geometry": {"type": "Point", "coordinates": [-90.51046, 36.05229]}}, {"type": "Feature", "properties": {"name": "Paris", "pop": 3302}, "geometry": {"type": "Point", "coordinates": [-93.73423, 35.29076]}}, {"type": "Feature", "properties": {"name": "Parkdale", "pop": 170}, "geometry": {"type": "Point", "coordinates": [-91.5464, 33.12121]}}, {"type": "Feature", "properties": {"name": "Parkin", "pop": 784}, "geometry": {"type": "Point", "coordinates": [-90.55351, 35.26118]}}, {"type": "Feature", "properties": {"name": "Patmos", "pop": 55}, "geometry": {"type": "Point", "coordinates": [-93.56696, 33.51137]}}, {"type": "Feature", "properties": {"name": "Patterson", "pop": 294}, "geometry": {"type": "Point", "coordinates": [-91.23496, 35.25897]}}, {"type": "Feature", "properties": {"name": "Peach Orchard", "pop": 104}, "geometry": {"type": "Point", "coordinates": [-90.66077, 36.28123]}}, {"type": "Feature", "properties": {"name": "Pea Ridge", "pop": 8680}, "geometry": {"type": "Point", "coordinates": [-94.12594, 36.45285]}}, {"type": "Feature", "properties": {"name": "Perla", "pop": 258}, "geometry": {"type": "Point", "coordinates": [-92.77623, 34.36476]}}, {"type": "Feature", "properties": {"name": "Perry", "pop": 266}, "geometry": {"type": "Point", "coordinates": [-92.79441, 35.04622]}}, {"type": "Feature", "properties": {"name": "Perrytown", "pop": 225}, "geometry": {"type": "Point", "coordinates": [-93.53241, 33.69714]}}, {"type": "Feature", "properties": {"name": "Perryville", "pop": 1401}, "geometry": {"type": "Point", "coordinates": [-92.80294, 35.012]}}, {"type": "Feature", "properties": {"name": "Piggott", "pop": 3538}, "geometry": {"type": "Point", "coordinates": [-90.19894, 36.38719]}}, {"type": "Feature", "properties": {"name": "Pindall", "pop": 101}, "geometry": {"type": "Point", "coordinates": [-92.86216, 36.06366]}}, {"type": "Feature", "properties": {"name": "Pine Bluff", "pop": 39123}, "geometry": {"type": "Point", "coordinates": [-92.01756, 34.21159]}}, {"type": "Feature", "properties": {"name": "Pineville", "pop": 158}, "geometry": {"type": "Point", "coordinates": [-92.10647, 36.16114]}}, {"type": "Feature", "properties": {"name": "Plainview", "pop": 460}, "geometry": {"type": "Point", "coordinates": [-93.29795, 34.98987]}}, {"type": "Feature", "properties": {"name": "Pleasant Plains", "pop": 350}, "geometry": {"type": "Point", "coordinates": [-91.62725, 35.55453]}}, {"type": "Feature", "properties": {"name": "Plumerville", "pop": 740}, "geometry": {"type": "Point", "coordinates": [-92.64306, 35.15938]}}, {"type": "Feature", "properties": {"name": "Pocahontas", "pop": 7601}, "geometry": {"type": "Point", "coordinates": [-90.97122, 36.26337]}}, {"type": "Feature", "properties": {"name": "Pollard", "pop": 189}, "geometry": {"type": "Point", "coordinates": [-90.26713, 36.42956]}}, {"type": "Feature", "properties": {"name": "Portia", "pop": 420}, "geometry": {"type": "Point", "coordinates": [-91.07104, 36.08487]}}, {"type": "Feature", "properties": {"name": "Portland", "pop": 311}, "geometry": {"type": "Point", "coordinates": [-91.51095, 33.23794]}}, {"type": "Feature", "properties": {"name": "Pottsville", "pop": 3285}, "geometry": {"type": "Point", "coordinates": [-93.06084, 35.23061]}}, {"type": "Feature", "properties": {"name": "Powhatan", "pop": 101}, "geometry": {"type": "Point", "coordinates": [-91.12388, 36.08731]}}, {"type": "Feature", "properties": {"name": "Poyen", "pop": 265}, "geometry": {"type": "Point", "coordinates": [-92.64198, 34.32417]}}, {"type": "Feature", "properties": {"name": "Prairie Grove", "pop": 8186}, "geometry": {"type": "Point", "coordinates": [-94.30338, 35.98611]}}, {"type": "Feature", "properties": {"name": "Prattsville", "pop": 295}, "geometry": {"type": "Point", "coordinates": [-92.54315, 34.31849]}}, {"type": "Feature", "properties": {"name": "Prescott", "pop": 3011}, "geometry": {"type": "Point", "coordinates": [-93.39121, 33.80432]}}, {"type": "Feature", "properties": {"name": "Pyatt", "pop": 191}, "geometry": {"type": "Point", "coordinates": [-92.84664, 36.25074]}}, {"type": "Feature", "properties": {"name": "Quitman", "pop": 700}, "geometry": {"type": "Point", "coordinates": [-92.21472, 35.38172]}}, {"type": "Feature", "properties": {"name": "Ratcliff", "pop": 166}, "geometry": {"type": "Point", "coordinates": [-93.88864, 35.30695]}}, {"type": "Feature", "properties": {"name": "Ravenden", "pop": 423}, "geometry": {"type": "Point", "coordinates": [-91.25131, 36.2432]}}, {"type": "Feature", "properties": {"name": "Ravenden Springs", "pop": 120}, "geometry": {"type": "Point", "coordinates": [-91.22326, 36.31271]}}, {"type": "Feature", "properties": {"name": "Rector", "pop": 1824}, "geometry": {"type": "Point", "coordinates": [-90.29352, 36.26416]}}, {"type": "Feature", "properties": {"name": "Redfield", "pop": 1490}, "geometry": {"type": "Point", "coordinates": [-92.18848, 34.43934]}}, {"type": "Feature", "properties": {"name": "Reed", "pop": 118}, "geometry": {"type": "Point", "coordinates": [-91.44576, 33.70167]}}, {"type": "Feature", "properties": {"name": "Reyno", "pop": 395}, "geometry": {"type": "Point", "coordinates": [-90.75899, 36.3609]}}, {"type": "Feature", "properties": {"name": "Rison", "pop": 939}, "geometry": {"type": "Point", "coordinates": [-92.19365, 33.95995]}}, {"type": "Feature", "properties": {"name": "Rockport", "pop": 680}, "geometry": {"type": "Point", "coordinates": [-92.80157, 34.40689]}}, {"type": "Feature", "properties": {"name": "Roe", "pop": 67}, "geometry": {"type": "Point", "coordinates": [-91.38596, 34.6311]}}, {"type": "Feature", "properties": {"name": "Rogers", "pop": 74035}, "geometry": {"type": "Point", "coordinates": [-94.15229, 36.31809]}}, {"type": "Feature", "properties": {"name": "Rondo", "pop": 152}, "geometry": {"type": "Point", "coordinates": [-90.82084, 34.65745]}}, {"type": "Feature", "properties": {"name": "Rose Bud", "pop": 497}, "geometry": {"type": "Point", "coordinates": [-92.07652, 35.32118]}}, {"type": "Feature", "properties": {"name": "Rosston", "pop": 269}, "geometry": {"type": "Point", "coordinates": [-93.28693, 33.58802]}}, {"type": "Feature", "properties": {"name": "Rudy", "pop": 130}, "geometry": {"type": "Point", "coordinates": [-94.24038, 35.52746]}}, {"type": "Feature", "properties": {"name": "Russell", "pop": 183}, "geometry": {"type": "Point", "coordinates": [-91.50995, 35.36213]}}, {"type": "Feature", "properties": {"name": "Russellville", "pop": 29338}, "geometry": {"type": "Point", "coordinates": [-93.13874, 35.27633]}}, {"type": "Feature", "properties": {"name": "St. Charles", "pop": 194}, "geometry": {"type": "Point", "coordinates": [-91.13745, 34.373]}}, {"type": "Feature", "properties": {"name": "St. Francis", "pop": 209}, "geometry": {"type": "Point", "coordinates": [-90.14218, 36.45487]}}, {"type": "Feature", "properties": {"name": "St. Joe", "pop": 129}, "geometry": {"type": "Point", "coordinates": [-92.80128, 36.02603]}}, {"type": "Feature", "properties": {"name": "St. Paul", "pop": 124}, "geometry": {"type": "Point", "coordinates": [-93.76729, 35.82679]}}, {"type": "Feature", "properties": {"name": "Salem", "pop": 1609}, "geometry": {"type": "Point", "coordinates": [-91.82171, 36.37042]}}, {"type": "Feature", "properties": {"name": "Salesville", "pop": 512}, "geometry": {"type": "Point", "coordinates": [-92.2775, 36.23906]}}, {"type": "Feature", "properties": {"name": "Scranton", "pop": 249}, "geometry": {"type": "Point", "coordinates": [-93.53972, 35.36043]}}, {"type": "Feature", "properties": {"name": "Searcy", "pop": 23813}, "geometry": {"type": "Point", "coordinates": [-91.73522, 35.24113]}}, {"type": "Feature", "properties": {"name": "Sedgwick", "pop": 159}, "geometry": {"type": "Point", "coordinates": [-90.86215, 35.97416]}}, {"type": "Feature", "properties": {"name": "Shannon Hills", "pop": 4685}, "geometry": {"type": "Point", "coordinates": [-92.40218, 34.61759]}}, {"type": "Feature", "properties": {"name": "Sheridan", "pop": 5202}, "geometry": {"type": "Point", "coordinates": [-92.44307, 34.32158]}}, {"type": "Feature", "properties": {"name": "Sherrill", "pop": 52}, "geometry": {"type": "Point", "coordinates": [-91.95181, 34.38506]}}, {"type": "Feature", "properties": {"name": "Sherwood", "pop": 33118}, "geometry": {"type": "Point", "coordinates": [-92.20448, 34.85203]}}, {"type": "Feature", "properties": {"name": "Shirley", "pop": 249}, "geometry": {"type": "Point", "coordinates": [-92.31352, 35.64375]}}, {"type": "Feature", "properties": {"name": "Sidney", "pop": 197}, "geometry": {"type": "Point", "coordinates": [-91.65829, 36.00442]}}, {"type": "Feature", "properties": {"name": "Siloam Springs", "pop": 19336}, "geometry": {"type": "Point", "coordinates": [-94.53152, 36.18461]}}, {"type": "Feature", "properties": {"name": "Smackover", "pop": 1581}, "geometry": {"type": "Point", "coordinates": [-92.73143, 33.36359]}}, {"type": "Feature", "properties": {"name": "Smithville", "pop": 85}, "geometry": {"type": "Point", "coordinates": [-91.30267, 36.07992]}}, {"type": "Feature", "properties": {"name": "South Lead Hill", "pop": 86}, "geometry": {"type": "Point", "coordinates": [-92.90621, 36.39561]}}, {"type": "Feature", "properties": {"name": "Southside", "pop": 4271}, "geometry": {"type": "Point", "coordinates": [-91.63016, 35.72018]}}, {"type": "Feature", "properties": {"name": "Sparkman", "pop": 339}, "geometry": {"type": "Point", "coordinates": [-92.85, 33.91717]}}, {"type": "Feature", "properties": {"name": "Springdale", "pop": 88224}, "geometry": {"type": "Point", "coordinates": [-94.15506, 36.19144]}}, {"type": "Feature", "properties": {"name": "Springtown", "pop": 90}, "geometry": {"type": "Point", "coordinates": [-94.42381, 36.26029]}}, {"type": "Feature", "properties": {"name": "Stamps", "pop": 1219}, "geometry": {"type": "Point", "coordinates": [-93.49788, 33.35496]}}, {"type": "Feature", "properties": {"name": "Star City", "pop": 2092}, "geometry": {"type": "Point", "coordinates": [-91.83996, 33.94078]}}, {"type": "Feature", "properties": {"name": "Stephens", "pop": 746}, "geometry": {"type": "Point", "coordinates": [-93.06959, 33.42092]}}, {"type": "Feature", "properties": {"name": "Strawberry", "pop": 263}, "geometry": {"type": "Point", "coordinates": [-91.3211, 35.96652]}}, {"type": "Feature", "properties": {"name": "Strong", "pop": 400}, "geometry": {"type": "Point", "coordinates": [-92.35557, 33.10788]}}, {"type": "Feature", "properties": {"name": "Stuttgart", "pop": 7788}, "geometry": {"type": "Point", "coordinates": [-91.54864, 34.49523]}}, {"type": "Feature", "properties": {"name": "Subiaco", "pop": 408}, "geometry": {"type": "Point", "coordinates": [-93.63944, 35.29737]}}, {"type": "Feature", "properties": {"name": "Success", "pop": 95}, "geometry": {"type": "Point", "coordinates": [-90.72262, 36.4545]}}, {"type": "Feature", "properties": {"name": "Sulphur Rock", "pop": 615}, "geometry": {"type": "Point", "coordinates": [-91.50026, 35.75161]}}, {"type": "Feature", "properties": {"name": "Sulphur Springs", "pop": 468}, "geometry": {"type": "Point", "coordinates": [-94.46009, 36.48408]}}, {"type": "Feature", "properties": {"name": "Summit", "pop": 535}, "geometry": {"type": "Point", "coordinates": [-92.68829, 36.2522]}}, {"type": "Feature", "properties": {"name": "Sunset", "pop": 169}, "geometry": {"type": "Point", "coordinates": [-90.20564, 35.22398]}}, {"type": "Feature", "properties": {"name": "Swifton", "pop": 720}, "geometry": {"type": "Point", "coordinates": [-91.12943, 35.82438]}}, {"type": "Feature", "properties": {"name": "Taylor", "pop": 562}, "geometry": {"type": "Point", "coordinates": [-93.46184, 33.0998]}}, {"type": "Feature", "properties": {"name": "Texarkana", "pop": 29223}, "geometry": {"type": "Point", "coordinates": [-93.98712, 33.43634]}}, {"type": "Feature", "properties": {"name": "Thornton", "pop": 329}, "geometry": {"type": "Point", "coordinates": [-92.48765, 33.77488]}}, {"type": "Feature", "properties": {"name": "Tillar", "pop": 161}, "geometry": {"type": "Point", "coordinates": [-91.45181, 33.711]}}, {"type": "Feature", "properties": {"name": "Tinsman", "pop": 51}, "geometry": {"type": "Point", "coordinates": [-92.3533, 33.62918]}}, {"type": "Feature", "properties": {"name": "Tollette", "pop": 187}, "geometry": {"type": "Point", "coordinates": [-93.8969, 33.81809]}}, {"type": "Feature", "properties": {"name": "Tontitown", "pop": 7364}, "geometry": {"type": "Point", "coordinates": [-94.24213, 36.16739]}}, {"type": "Feature", "properties": {"name": "Traskwood", "pop": 511}, "geometry": {"type": "Point", "coordinates": [-92.66644, 34.45245]}}, {"type": "Feature", "properties": {"name": "Trumann", "pop": 7400}, "geometry": {"type": "Point", "coordinates": [-90.52603, 35.67694]}}, {"type": "Feature", "properties": {"name": "Tuckerman", "pop": 1683}, "geometry": {"type": "Point", "coordinates": [-91.20208, 35.72564]}}, {"type": "Feature", "properties": {"name": "Tull", "pop": 490}, "geometry": {"type": "Point", "coordinates": [-92.58588, 34.44121]}}, {"type": "Feature", "properties": {"name": "Tupelo", "pop": 71}, "geometry": {"type": "Point", "coordinates": [-91.2299, 35.39033]}}, {"type": "Feature", "properties": {"name": "Turrell", "pop": 500}, "geometry": {"type": "Point", "coordinates": [-90.27038, 35.37461]}}, {"type": "Feature", "properties": {"name": "Twin Groves", "pop": 317}, "geometry": {"type": "Point", "coordinates": [-92.40567, 35.32921]}}, {"type": "Feature", "properties": {"name": "Tyronza", "pop": 684}, "geometry": {"type": "Point", "coordinates": [-90.35601, 35.48677]}}, {"type": "Feature", "properties": {"name": "Ulm", "pop": 178}, "geometry": {"type": "Point", "coordinates": [-91.46169, 34.57623]}}, {"type": "Feature", "properties": {"name": "Valley Springs", "pop": 190}, "geometry": {"type": "Point", "coordinates": [-92.9897, 36.15377]}}, {"type": "Feature", "properties": {"name": "Van Buren", "pop": 24138}, "geometry": {"type": "Point", "coordinates": [-94.354, 35.45118]}}, {"type": "Feature", "properties": {"name": "Vandervoort", "pop": 113}, "geometry": {"type": "Point", "coordinates": [-94.36492, 34.37978]}}, {"type": "Feature", "properties": {"name": "Victoria", "pop": 18}, "geometry": {"type": "Point", "coordinates": [-90.06015, 35.75742]}}, {"type": "Feature", "properties": {"name": "Vilonia", "pop": 4568}, "geometry": {"type": "Point", "coordinates": [-92.21539, 35.0787]}}, {"type": "Feature", "properties": {"name": "Viola", "pop": 371}, "geometry": {"type": "Point", "coordinates": [-91.98698, 36.39924]}}, {"type": "Feature", "properties": {"name": "Wabbaseka", "pop": 174}, "geometry": {"type": "Point", "coordinates": [-91.79378, 34.35981]}}, {"type": "Feature", "properties": {"name": "Waldenburg", "pop": 53}, "geometry": {"type": "Point", "coordinates": [-90.93456, 35.56526]}}, {"type": "Feature", "properties": {"name": "Waldo", "pop": 1119}, "geometry": {"type": "Point", "coordinates": [-93.29539, 33.35192]}}, {"type": "Feature", "properties": {"name": "Waldron", "pop": 3361}, "geometry": {"type": "Point", "coordinates": [-94.09484, 34.90325]}}, {"type": "Feature", "properties": {"name": "Walnut Ridge", "pop": 5532}, "geometry": {"type": "Point", "coordinates": [-90.94684, 36.08478]}}, {"type": "Feature", "properties": {"name": "Ward", "pop": 6840}, "geometry": {"type": "Point", "coordinates": [-91.95773, 35.01378]}}, {"type": "Feature", "properties": {"name": "Warren", "pop": 5211}, "geometry": {"type": "Point", "coordinates": [-92.06772, 33.61183]}}, {"type": "Feature", "properties": {"name": "Washington", "pop": 90}, "geometry": {"type": "Point", "coordinates": [-93.68329, 33.77288]}}, {"type": "Feature", "properties": {"name": "Watson", "pop": 169}, "geometry": {"type": "Point", "coordinates": [-91.25706, 33.89375]}}, {"type": "Feature", "properties": {"name": "Weiner", "pop": 621}, "geometry": {"type": "Point", "coordinates": [-90.9053, 35.61971]}}, {"type": "Feature", "properties": {"name": "Weldon", "pop": 58}, "geometry": {"type": "Point", "coordinates": [-91.23161, 35.44799]}}, {"type": "Feature", "properties": {"name": "Western Grove", "pop": 349}, "geometry": {"type": "Point", "coordinates": [-92.95455, 36.10112]}}, {"type": "Feature", "properties": {"name": "West Fork", "pop": 2353}, "geometry": {"type": "Point", "coordinates": [-94.18111, 35.93492]}}, {"type": "Feature", "properties": {"name": "West Memphis", "pop": 23825}, "geometry": {"type": "Point", "coordinates": [-90.19927, 35.14955]}}, {"type": "Feature", "properties": {"name": "West Point", "pop": 171}, "geometry": {"type": "Point", "coordinates": [-91.6099, 35.20331]}}, {"type": "Feature", "properties": {"name": "Wheatley", "pop": 267}, "geometry": {"type": "Point", "coordinates": [-91.10626, 34.92119]}}, {"type": "Feature", "properties": {"name": "Whelen Springs", "pop": 44}, "geometry": {"type": "Point", "coordinates": [-93.12603, 33.83314]}}, {"type": "Feature", "properties": {"name": "White Hall", "pop": 5437}, "geometry": {"type": "Point", "coordinates": [-92.10065, 34.27518]}}, {"type": "Feature", "properties": {"name": "Wickes", "pop": 653}, "geometry": {"type": "Point", "coordinates": [-94.32725, 34.29974]}}, {"type": "Feature", "properties": {"name": "Widener", "pop": 203}, "geometry": {"type": "Point", "coordinates": [-90.68193, 35.0235]}}, {"type": "Feature", "properties": {"name": "Wiederkehr Village", "pop": 47}, "geometry": {"type": "Point", "coordinates": [-93.76472, 35.47771]}}, {"type": "Feature", "properties": {"name": "Williford", "pop": 83}, "geometry": {"type": "Point", "coordinates": [-91.36046, 36.25183]}}, {"type": "Feature", "properties": {"name": "Willisville", "pop": 146}, "geometry": {"type": "Point", "coordinates": [-93.29367, 33.51612]}}, {"type": "Feature", "properties": {"name": "Wilmar", "pop": 383}, "geometry": {"type": "Point", "coordinates": [-91.92934, 33.62638]}}, {"type": "Feature", "properties": {"name": "Wilmot", "pop": 395}, "geometry": {"type": "Point", "coordinates": [-91.57786, 33.05696]}}, {"type": "Feature", "properties": {"name": "Wilson", "pop": 719}, "geometry": {"type": "Point", "coordinates": [-90.0418, 35.56596]}}, {"type": "Feature", "properties": {"name": "Wilton", "pop": 287}, "geometry": {"type": "Point", "coordinates": [-94.14799, 33.73873]}}, {"type": "Feature", "properties": {"name": "Winchester", "pop": 135}, "geometry": {"type": "Point", "coordinates": [-91.4737, 33.77407]}}, {"type": "Feature", "properties": {"name": "Winslow", "pop": 363}, "geometry": {"type": "Point", "coordinates": [-94.13178, 35.80154]}}, {"type": "Feature", "properties": {"name": "Winthrop", "pop": 113}, "geometry": {"type": "Point", "coordinates": [-94.35422, 33.83084]}}, {"type": "Feature", "properties": {"name": "Wooster", "pop": 1058}, "geometry": {"type": "Point", "coordinates": [-92.4502, 35.19992]}}, {"type": "Feature", "properties": {"name": "Wrightsville", "pop": 1602}, "geometry": {"type": "Point", "coordinates": [-92.21961, 34.62071]}}, {"type": "Feature", "properties": {"name": "Wynne", "pop": 8011}, "geometry": {"type": "Point", "coordinates": [-90.78851, 35.23522]}}, {"type": "Feature", "properties": {"name": "Yellville", "pop": 1164}, "geometry": {"type": "Point", "coordinates": [-92.68612, 36.22885]}}, {"type": "Feature", "properties": {"name": "Zinc", "pop": 99}, "geometry": {"type": "Point", "coordinates": [-92.91442, 36.28396]}}]}