{"type": "Feature", "properties": {"name": "Arkansas"}, "geometry": {"type": "Polygon", "coordinates": [[[-94.04296, 33.01922], [-94.04345, 33.55225], [-94.06685, 33.56891], [-94.08524, 33.57555], [-94.1818, 33.59322], [-94.25266, 33.58614], [-94.35594, 33.54318], [-94.46434, 33.59882], [-94.48588, 33.63787], [-94.43122, 35.39429], [-94.61792, 36.49941], [-90.15248, 36.49795], [-90.15637, 36.48775], [-90.13399, 36.43791], [-90.0729, 36.39301], [-90.06451, 36.38208], [-90.06398, 36.30304], [-90.08373, 36.27233], [-90.11492, 36.2656], [-90.22042, 36.18476], [-90.31917, 36.08998], [-90.36443, 36.01362], [-90.36872, 35.99581], [-89.7331, 36.00061], [-89.71997, 35.97462], [-89.68692, 35.94772], [-89.68814, 35.89695], [-89.71493, 35.90625], [-89.73361, 35.9047], [-89.76569, 35.8913], [-89.77356, 35.8717], [-89.76941, 35.86156], [-89.70926, 35.83891], [-89.70104, 35.82823], [-89.70388, 35.82028], [-89.82122, 35.75672], [-89.86563, 35.74658], [-89.91, 35.7594], [-89.95625, 35.73339], [-89.95575, 35.69062], [-89.93738, 35.66571], [-89.92275, 35.65529], [-89.90615, 35.65114], [-89.88493, 35.65511], [-89.9098, 35.53791], [-89.95735, 35.52868], [-90.01731, 35.556], [-90.03294, 35.55344], [-90.03974, 35.54804], [-90.03401, 35.46882], [-90.04768, 35.45926], [-90.05907, 35.45789], [-90.07442, 35.47252], [-90.10772, 35.47694], [-90.169, 35.42185], [-90.17926, 35.38519], [-90.16625, 35.37474], [-90.13551, 35.37667], [-90.09359, 35.39333], [-90.08669, 35.36994], [-90.11489, 35.30389], [-90.15891, 35.30064], [-90.16887, 35.282], [-90.15209, 35.25599], [-90.14039, 35.25229], [-90.10509, 35.25429], [-90.07741, 35.22548], [-90.06539, 35.13769], [-90.08342, 35.12167], [-90.10059, 35.11669], [-90.14279, 35.13509], [-90.16006, 35.12883], [-90.17459, 35.11668], [-90.19386, 35.06165], [-90.2956, 35.04009], [-90.30988, 35.00975], [-90.3093, 34.99569], [-90.25397, 34.95499], [-90.24448, 34.9376], [-90.2501, 34.90732], [-90.30738, 34.8462], [-90.41486, 34.83185], [-90.42388, 34.83461], [-90.43643, 34.85506], [-90.46145, 34.85673], [-90.47396, 34.85256], [-90.47813, 34.83254], [-90.46729, 34.7825], [-90.4798, 34.76916], [-90.49481, 34.76749], [-90.51983, 34.7825], [-90.53734, 34.78417], [-90.54986, 34.76332], [-90.55486, 34.72746], [-90.50982, 34.68993], [-90.50899, 34.67909], [-90.5215, 34.66324], [-90.53901, 34.65907], [-90.56403, 34.66574], [-90.57654, 34.6574], [-90.56581, 34.4354], [-90.57534, 34.41515], [-90.61394, 34.39072], [-90.65854, 34.3757], [-90.76414, 34.3634], [-90.85637, 34.23893], [-90.86878, 34.22824], [-90.89474, 34.22998], [-90.91148, 34.22305], [-90.91321, 34.21036], [-90.88089, 34.18035], [-90.88032, 34.16938], [-90.89301, 34.15553], [-90.9184, 34.15438], [-90.93456, 34.13014], [-90.92879, 34.10763], [-90.91206, 34.09551], [-90.8884, 34.08743], [-90.87916, 34.0655], [-90.88741, 34.0325], [-90.96471, 34.00795], [-91.01889, 34.00315], [-91.08912, 33.97265], [-91.08816, 33.96008], [-91.03682, 33.91466], [-91.06751, 33.84044], [-91.13987, 33.77712], [-91.14468, 33.75011], [-91.1268, 33.70781], [-91.1279, 33.69576], [-91.14817, 33.67933], [-91.17611, 33.68426], [-91.18597, 33.67933], [-91.19309, 33.65687], [-91.18652, 33.64591], [-91.13044, 33.60603], [-91.13404, 33.59449], [-91.15215, 33.58272], [-91.22412, 33.56737], [-91.2323, 33.55279], [-91.21567, 33.52942], [-91.12511, 33.47284], [-91.1185, 33.44912], [-91.13188, 33.43006], [-91.18443, 33.41958], [-91.14122, 33.2984], [-91.11056, 33.24593], [-91.08598, 33.22164], [-91.08759, 33.14518], [-91.12566, 33.03828], [-91.16607, 33.00411], [-93.07317, 33.0179], [-94.04296, 33.01922]]]}}